ONEWEB-0331             
1 49198U 21083N   24307.84287606  .00000107  00000+0  23747-3 0  9995
2 49198  87.9076  93.1320 0001294 100.7778 259.3500 13.18685030153350
ONEWEB-0333             
1 49199U 21083P   24307.84999087 -.00000164  00000+0 -48283-3 0  9996
2 49199  87.8908  77.8889 0001603  94.7247 265.4065 13.13467812154570
ONEWEB-0334             
1 49200U 21083Q   24307.75266272  .00000115  00000+0  25164-3 0  9999
2 49200  87.9290  32.1250 0002664  92.0188 268.1251 13.20769762160017
ONEWEB-0335             
1 49201U 21083R   24307.84524407 -.00000129  00000+0 -38757-3 0  9996
2 49201  87.8906  77.8782 0001406  94.4927 265.6363 13.13469338154586
ONEWEB-0336             
1 49202U 21083S   24307.89127439  .00000345  00000+0  90971-3 0  9990
2 49202  87.8907  77.8641 0001668 100.6058 259.5259 13.13471253154593
ONEWEB-0337             
1 49203U 21083T   24307.82444993  .00000369  00000+0  97672-3 0  9992
2 49203  87.8907  77.8761 0001358  97.3069 262.8214 13.13468306154589
ONEWEB-0338             
1 49204U 21083U   24307.75977522  .00000044  00000+0  77152-4 0  9996
2 49204  87.9294  32.1154 0001926  90.5901 269.5453 13.20774258160042
ONEWEB-0339             
1 49205U 21083V   24307.83572723  .00000148  00000+0  36932-3 0  9995
2 49205  87.8905  77.8665 0001445  93.4987 266.6308 13.13468928154569
